start=new Date('2021-11-03T00:00:00.000Z').valueOf();
sats=[{"INCLINATION":"53.0538","MEAN_MOTION_DOT":"-0.00001053","EPHEMERIS_TYPE":"0","OBJECT_ID":"2020-001V","OBJECT_NAME":"STARLINK-1144","COUNTRY_CODE":"US","CLASSIFICATION_TYPE":"U","PERIOD":"95.593","BSTAR":"-0.00005182100000","FILE":"3198350","REV_AT_EPOCH":"10178","CENTER_NAME":"EARTH","SITE":"AFETR","GP_ID":"188773565","MEAN_ANOMALY":"287.1156","MEAN_ELEMENT_THEORY":"SGP4","MEAN_MOTION_DDOT":"0.0000000000000","TLE_LINE2":"2 44933  53.0538 275.5715 0001389  72.9985 287.1156 15.06394083101788","LAUNCH_DATE":"2020-01-07","ECCENTRICITY":"0.00013890","SEMIMAJOR_AXIS":"6925.367","ELEMENT_SET_NO":"999","PERIAPSIS":"546.270","TLE_LINE1":"1 44933U 20001V   21306.65853973 -.00001053  00000-0 -51821-4 0  9996","EPOCH":"2021-11-02T15:48:17.832672","OBJECT_TYPE":"PAYLOAD","TIME_SYSTEM":"UTC","DECAY_DATE":null,"APOAPSIS":"548.194","NORAD_CAT_ID":"44933","MEAN_MOTION":"15.06394083","RA_OF_ASC_NODE":"275.5715","RCS_SIZE":"LARGE","REF_FRAME":"TEME","ARG_OF_PERICENTER":"72.9985"},{"RA_OF_ASC_NODE":"257.0020","RCS_SIZE":"LARGE","REF_FRAME":"TEME","ARG_OF_PERICENTER":"77.4024","MEAN_MOTION":"15.06403802","APOAPSIS":"548.346","NORAD_CAT_ID":"44934","DECAY_DATE":null,"TIME_SYSTEM":"UTC","OBJECT_TYPE":"PAYLOAD","EPOCH":"2021-11-02T08:09:10.403136","TLE_LINE1":"1 44934U 20001W   21306.33970374  .00002302  00000-0  17336-3 0  9995","ELEMENT_SET_NO":"999","SEMIMAJOR_AXIS":"6925.337","ECCENTRICITY":"0.00016520","PERIAPSIS":"546.058","MEAN_MOTION_DDOT":"0.0000000000000","TLE_LINE2":"2 44934  53.0536 257.0020 0001652  77.4024 282.7149 15.06403802100724","MEAN_ANOMALY":"282.7149","MEAN_ELEMENT_THEORY":"SGP4","LAUNCH_DATE":"2020-01-07","GP_ID":"188740348","SITE":"AFETR","FILE":"3197746","CENTER_NAME":"EARTH","REV_AT_EPOCH":"10072","PERIOD":"95.592","BSTAR":"0.00017336000000","CLASSIFICATION_TYPE":"U","COUNTRY_CODE":"US","INCLINATION":"53.0536","MEAN_MOTION_DOT":"0.00002302","OBJECT_NAME":"STARLINK-1071","OBJECT_ID":"2020-001W","EPHEMERIS_TYPE":"0"},{"COUNTRY_CODE":"US","MEAN_MOTION_DOT":"0.00374270","INCLINATION":"53.0520","EPHEMERIS_TYPE":"0","OBJECT_ID":"2020-001X","OBJECT_NAME":"STARLINK-1072","PERIOD":"91.157","BSTAR":"0.00191850000000","CLASSIFICATION_TYPE":"U","SITE":"AFETR","FILE":"3198074","REV_AT_EPOCH":"10123","CENTER_NAME":"EARTH","GP_ID":"188746865","SEMIMAJOR_AXIS":"6709.426","ELEMENT_SET_NO":"999","ECCENTRICITY":"0.00009740","PERIAPSIS":"330.637","MEAN_ELEMENT_THEORY":"SGP4","MEAN_ANOMALY":"230.0430","MEAN_MOTION_DDOT":"0.0000000000000","TLE_LINE2":"2 44935  53.0520 224.1979 0000974 130.0676 230.0430 15.79700364101230","LAUNCH_DATE":"2020-01-07","EPOCH":"2021-11-02T20:26:44.668896","OBJECT_TYPE":"PAYLOAD","TIME_SYSTEM":"UTC","TLE_LINE1":"1 44935U 20001X   21306.85190589  .00374270  00000-0  19185-2 0  9994","NORAD_CAT_ID":"44935","APOAPSIS":"331.944","DECAY_DATE":null,"RCS_SIZE":"LARGE","RA_OF_ASC_NODE":"224.1979","REF_FRAME":"TEME","ARG_OF_PERICENTER":"130.0676","MEAN_MOTION":"15.79700364"},{"APOAPSIS":"548.293","NORAD_CAT_ID":"44937","DECAY_DATE":null,"ARG_OF_PERICENTER":"79.2219","REF_FRAME":"TEME","RCS_SIZE":"LARGE","RA_OF_ASC_NODE":"255.9175","MEAN_MOTION":"15.06388640","PERIAPSIS":"546.204","SEMIMAJOR_AXIS":"6925.383","ELEMENT_SET_NO":"999","ECCENTRICITY":"0.00015080","LAUNCH_DATE":"2020-01-07","TLE_LINE2":"2 44937  53.0539 255.9175 0001508  79.2219 280.8940 15.06388640100768","MEAN_MOTION_DDOT":"0.0000000000000","MEAN_ELEMENT_THEORY":"SGP4","MEAN_ANOMALY":"280.8940","OBJECT_TYPE":"PAYLOAD","TIME_SYSTEM":"UTC","EPOCH":"2021-11-02T13:59:29.879808","TLE_LINE1":"1 44937U 20001Z   21306.58298472 -.00000104  00000-0  11940-4 0  9992","SITE":"AFETR","REV_AT_EPOCH":"10076","CENTER_NAME":"EARTH","FILE":"3198350","GP_ID":"188773315","COUNTRY_CODE":"US","OBJECT_ID":"2020-001Z","OBJECT_NAME":"STARLINK-1079","EPHEMERIS_TYPE":"0","MEAN_MOTION_DOT":"-0.00000104","INCLINATION":"53.0539","BSTAR":"0.00001194000000","PERIOD":"95.593","CLASSIFICATION_TYPE":"U"},{"ARG_OF_PERICENTER":"78.0060","REF_FRAME":"TEME","RA_OF_ASC_NODE":"256.9512","RCS_SIZE":"LARGE","MEAN_MOTION":"15.06400223","NORAD_CAT_ID":"44938","APOAPSIS":"548.381","DECAY_DATE":null,"EPOCH":"2021-11-02T08:25:05.676096","TIME_SYSTEM":"UTC","OBJECT_TYPE":"PAYLOAD","TLE_LINE1":"1 44938U 20001AA  21306.35076014  .00000515  00000-0  53500-4 0  9997","PERIAPSIS":"546.045","SEMIMAJOR_AXIS":"6925.348","ELEMENT_SET_NO":"999","ECCENTRICITY":"0.00016870","LAUNCH_DATE":"2020-01-07","MEAN_ELEMENT_THEORY":"SGP4","MEAN_ANOMALY":"282.1118","MEAN_MOTION_DDOT":"0.0000000000000","TLE_LINE2":"2 44938  53.0536 256.9512 0001687  78.0060 282.1118 15.06400223100721","GP_ID":"188740410","SITE":"AFETR","REV_AT_EPOCH":"10072","CENTER_NAME":"EARTH","FILE":"3197750","BSTAR":"0.00005350000000","PERIOD":"95.592","CLASSIFICATION_TYPE":"U","COUNTRY_CODE":"US","EPHEMERIS_TYPE":"0","OBJECT_ID":"2020-001AA","OBJECT_NAME":"STARLINK-1082","INCLINATION":"53.0536","MEAN_MOTION_DOT":"0.00000515"},{"TLE_LINE2":"2 44939  53.0537 254.8423 0001478  76.1753 283.9400 15.06391800100797","MEAN_MOTION_DDOT":"0.0000000000000","MEAN_ELEMENT_THEORY":"SGP4","MEAN_ANOMALY":"283.9400","LAUNCH_DATE":"2020-01-07","SEMIMAJOR_AXIS":"6925.374","ELEMENT_SET_NO":"999","ECCENTRICITY":"0.00014780","PERIAPSIS":"546.215","TLE_LINE1":"1 44939U 20001AB  21306.82256959  .00000229  00000-0  34288-4 0  9992","TIME_SYSTEM":"UTC","OBJECT_TYPE":"PAYLOAD","EPOCH":"2021-11-02T19:44:30.012576","DECAY_DATE":null,"APOAPSIS":"548.262","NORAD_CAT_ID":"44939","MEAN_MOTION":"15.06391800","RCS_SIZE":"LARGE","RA_OF_ASC_NODE":"254.8423","REF_FRAME":"TEME","ARG_OF_PERICENTER":"76.1753","INCLINATION":"53.0537","MEAN_MOTION_DOT":"0.00000229","OBJECT_NAME":"STARLINK-1083","OBJECT_ID":"2020-001AB","EPHEMERIS_TYPE":"0","COUNTRY_CODE":"US","CLASSIFICATION_TYPE":"U","PERIOD":"95.593","BSTAR":"0.00003428800000","FILE":"3198350","REV_AT_EPOCH":"10079","CENTER_NAME":"EARTH","SITE":"AFETR","GP_ID":"188772314"},{"BSTAR":"-0.00004344100000","PERIOD":"95.592","CLASSIFICATION_TYPE":"U","COUNTRY_CODE":"US","OBJECT_ID":"2020-001AC","OBJECT_NAME":"STARLINK-1091","EPHEMERIS_TYPE":"0","MEAN_MOTION_DOT":"-0.00000928","INCLINATION":"53.0546","GP_ID":"188772564","SITE":"AFETR","CENTER_NAME":"EARTH","REV_AT_EPOCH":"10075","FILE":"3198350","TIME_SYSTEM":"UTC","OBJECT_TYPE":"PAYLOAD","EPOCH":"2021-11-02T13:38:15.463392","TLE_LINE1":"1 44940U 20001AC  21306.56823453 -.00000928  00000-0 -43441-4 0  9993","PERIAPSIS":"546.142","SEMIMAJOR_AXIS":"6925.352","ELEMENT_SET_NO":"999","ECCENTRICITY":"0.00015530","LAUNCH_DATE":"2020-01-07","TLE_LINE2":"2 44940  53.0546 255.9750 0001553  75.0375 285.0785 15.06398814100753","MEAN_MOTION_DDOT":"0.0000000000000","MEAN_ANOMALY":"285.0785","MEAN_ELEMENT_THEORY":"SGP4","REF_FRAME":"TEME","ARG_OF_PERICENTER":"75.0375","RA_OF_ASC_NODE":"255.9750","RCS_SIZE":"LARGE","MEAN_MOTION":"15.06398814","APOAPSIS":"548.293","NORAD_CAT_ID":"44940","DECAY_DATE":null},{"ARG_OF_PERICENTER":"66.1020","REF_FRAME":"TEME","RCS_SIZE":"LARGE","RA_OF_ASC_NODE":"255.8767","MEAN_MOTION":"15.06400085","APOAPSIS":"548.297","NORAD_CAT_ID":"44941","DECAY_DATE":null,"OBJECT_TYPE":"PAYLOAD","TIME_SYSTEM":"UTC","EPOCH":"2021-11-02T14:10:06.032640","TLE_LINE1":"1 44941U 20001AD  21306.59034760 -.00000110  00000-0  11535-4 0  9993","PERIAPSIS":"546.129","SEMIMAJOR_AXIS":"6925.348","ELEMENT_SET_NO":"999","ECCENTRICITY":"0.00015650","LAUNCH_DATE":"2020-01-07","MEAN_MOTION_DDOT":"0.0000000000000","TLE_LINE2":"2 44941  53.0544 255.8767 0001565  66.1020 294.0132 15.06400085100761","MEAN_ANOMALY":"294.0132","MEAN_ELEMENT_THEORY":"SGP4","GP_ID":"188772816","SITE":"AFETR","REV_AT_EPOCH":"10076","CENTER_NAME":"EARTH","FILE":"3198350","BSTAR":"0.00001153500000","PERIOD":"95.592","CLASSIFICATION_TYPE":"U","COUNTRY_CODE":"US","OBJECT_ID":"2020-001AD","OBJECT_NAME":"STARLINK-1094","EPHEMERIS_TYPE":"0","MEAN_MOTION_DOT":"-0.00000110","INCLINATION":"53.0544"},{"DECAY_DATE":null,"NORAD_CAT_ID":"44942","APOAPSIS":"548.171","MEAN_MOTION":"15.06412684","RA_OF_ASC_NODE":"255.9496","RCS_SIZE":"LARGE","REF_FRAME":"TEME","ARG_OF_PERICENTER":"73.1719","MEAN_ELEMENT_THEORY":"SGP4","MEAN_ANOMALY":"286.9427","TLE_LINE2":"2 44942  53.0524 255.9496 0001439  73.1719 286.9427 15.06412684100768","MEAN_MOTION_DDOT":"0.0000000000000","LAUNCH_DATE":"2020-01-07","ECCENTRICITY":"0.00014390","SEMIMAJOR_AXIS":"6925.310","ELEMENT_SET_NO":"999","PERIAPSIS":"546.178","TLE_LINE1":"1 44942U 20001AE  21306.57560062  .00005483  00000-0  38656-3 0  9990","EPOCH":"2021-11-02T13:48:51.893568","TIME_SYSTEM":"UTC","OBJECT_TYPE":"PAYLOAD","FILE":"3198350","CENTER_NAME":"EARTH","REV_AT_EPOCH":"10076","SITE":"AFETR","GP_ID":"188773566","MEAN_MOTION_DOT":"0.00005483","INCLINATION":"53.0524","EPHEMERIS_TYPE":"0","OBJECT_ID":"2020-001AE","OBJECT_NAME":"STARLINK-1096","COUNTRY_CODE":"US","CLASSIFICATION_TYPE":"U","PERIOD":"95.591","BSTAR":"0.00038656000000"},{"LAUNCH_DATE":"2020-01-07","MEAN_ELEMENT_THEORY":"SGP4","MEAN_ANOMALY":"277.2113","TLE_LINE2":"2 44943  53.0533 256.0474 0001655  82.9064 277.2113 15.06400156100753","MEAN_MOTION_DDOT":"0.0000000000000","PERIAPSIS":"546.067","ECCENTRICITY":"0.00016550","SEMIMAJOR_AXIS":"6925.348","ELEMENT_SET_NO":"999","TLE_LINE1":"1 44943U 20001AF  21306.55348853  .00000158  00000-0  29498-4 0  9990","EPOCH":"2021-11-02T13:17:01.408992","OBJECT_TYPE":"PAYLOAD","TIME_SYSTEM":"UTC","DECAY_DATE":null,"APOAPSIS":"548.359","NORAD_CAT_ID":"44943","MEAN_MOTION":"15.06400156","ARG_OF_PERICENTER":"82.9064","REF_FRAME":"TEME","RA_OF_ASC_NODE":"256.0474","RCS_SIZE":"LARGE","EPHEMERIS_TYPE":"0","OBJECT_NAME":"STARLINK-1100","OBJECT_ID":"2020-001AF","MEAN_MOTION_DOT":"0.00000158","INCLINATION":"53.0533","COUNTRY_CODE":"US","CLASSIFICATION_TYPE":"U","BSTAR":"0.00002949800000","PERIOD":"95.592","REV_AT_EPOCH":"10075","CENTER_NAME":"EARTH","FILE":"3198350","SITE":"AFETR","GP_ID":"188771815"}];
